{
  "type": "FeatureCollection",
  "features": [
    {
      "type": "Feature",
      "properties": {
        "norad_id": 29994,
        "name": "FENGYUN 1C DEB",
        "group": "fengyun-1c-debris",
        "lat": 50.39726342336077,
        "lon": 2.7479466834106203,
        "alt_km": 974.0156068190208,
        "timestamp": "2025-12-07T03:52:32.770029+00:00",
        "meta_object_name": "FENGYUN 1C DEB",
        "meta_object_id": "1999-025LU",
        "meta_epoch": "2025-12-06T16:10:53.400288",
        "meta_mean_motion": 14.02638642,
        "meta_eccentricity": 0.01295148,
        "meta_inclination": 98.8301,
        "meta_ra_of_asc_node": 13.1046,
        "meta_arg_of_pericenter": 230.6258,
        "meta_mean_anomaly": 241.6643,
        "meta_ephemeris_type": 0,
        "meta_classification_type": "U",
        "meta_norad_cat_id": 29994,
        "meta_element_set_no": 999,
        "meta_rev_at_epoch": 96641,
        "meta_bstar": 0.00039597017,
        "meta_mean_motion_dot": 6.14e-06,
        "meta_mean_motion_ddot": 0,
        "tle_line1": "1 29994U 99025LU  25340.67422917  .00000614  00000+0  39597-3 0  9996",
        "tle_line2": "2 29994  98.8301  13.1046 0129514 230.6258 241.6643 14.02638642966415"
      },
      "geometry": {
        "type": "Point",
        "coordinates": [
          2.7479466834106203,
          50.39726342336077
        ]
      }
    },
    {
      "type": "Feature",
      "properties": {
        "norad_id": 29996,
        "name": "FENGYUN 1C DEB",
        "group": "fengyun-1c-debris",
        "lat": 78.70129252760051,
        "lon": -106.51644167019754,
        "alt_km": 759.1663533437859,
        "timestamp": "2025-12-07T03:52:32.770039+00:00",
        "meta_object_name": "FENGYUN 1C DEB",
        "meta_object_id": "1999-025LW",
        "meta_epoch": "2025-12-06T16:05:47.260896",
        "meta_mean_motion": 14.0936529,
        "meta_eccentricity": 0.01321421,
        "meta_inclination": 99.3032,
        "meta_ra_of_asc_node": 17.8498,
        "meta_arg_of_pericenter": 104.8019,
        "meta_mean_anomaly": 22.959,
        "meta_ephemeris_type": 0,
        "meta_classification_type": "U",
        "meta_norad_cat_id": 29996,
        "meta_element_set_no": 999,
        "meta_rev_at_epoch": 96051,
        "meta_bstar": 0.002840434,
        "meta_mean_motion_dot": 5.326e-05,
        "meta_mean_motion_ddot": 0,
        "tle_line1": "1 29996U 99025LW  25340.67068589  .00005326  00000+0  28404-2 0  9998",
        "tle_line2": "2 29996  99.3032  17.8498 0132142 104.8019  22.9590 14.09365290960513"
      },
      "geometry": {
        "type": "Point",
        "coordinates": [
          -106.51644167019754,
          78.70129252760051
        ]
      }
    },
    {
      "type": "Feature",
      "properties": {
        "norad_id": 29997,
        "name": "FENGYUN 1C DEB",
        "group": "fengyun-1c-debris",
        "lat": -76.3186230483427,
        "lon": 31.726842621980555,
        "alt_km": 870.7197746323573,
        "timestamp": "2025-12-07T03:52:32.770050+00:00",
        "meta_object_name": "FENGYUN 1C DEB",
        "meta_object_id": "1999-025LX",
        "meta_epoch": "2025-12-06T11:50:51.360864",
        "meta_mean_motion": 14.00856358,
        "meta_eccentricity": 0.0080331,
        "meta_inclination": 98.8809,
        "meta_ra_of_asc_node": 351.1149,
        "meta_arg_of_pericenter": 344.7469,
        "meta_mean_anomaly": 170.4116,
        "meta_ephemeris_type": 0,
        "meta_classification_type": "U",
        "meta_norad_cat_id": 29997,
        "meta_element_set_no": 999,
        "meta_rev_at_epoch": 96302,
        "meta_bstar": 0.0013087693,
        "meta_mean_motion_dot": 1.968e-05,
        "meta_mean_motion_ddot": 0,
        "tle_line1": "1 29997U 99025LX  25340.49365001  .00001968  00000+0  13088-2 0  9998",
        "tle_line2": "2 29997  98.8809 351.1149 0080331 344.7469 170.4116 14.00856358963026"
      },
      "geometry": {
        "type": "Point",
        "coordinates": [
          31.726842621980555,
          -76.3186230483427
        ]
      }
    },
    {
      "type": "Feature",
      "properties": {
        "norad_id": 29998,
        "name": "FENGYUN 1C DEB",
        "group": "fengyun-1c-debris",
        "lat": -22.93362692312351,
        "lon": 45.16935164379995,
        "alt_km": 798.9053936102155,
        "timestamp": "2025-12-07T03:52:32.770060+00:00",
        "meta_object_name": "FENGYUN 1C DEB",
        "meta_object_id": "1999-025LY",
        "meta_epoch": "2025-12-06T14:32:10.415040",
        "meta_mean_motion": 14.28506752,
        "meta_eccentricity": 0.00046294,
        "meta_inclination": 99.3066,
        "meta_ra_of_asc_node": 40.5986,
        "meta_arg_of_pericenter": 320.6546,
        "meta_mean_anomaly": 39.4297,
        "meta_ephemeris_type": 0,
        "meta_classification_type": "U",
        "meta_norad_cat_id": 29998,
        "meta_element_set_no": 999,
        "meta_rev_at_epoch": 97787,
        "meta_bstar": 0.0015605646,
        "meta_mean_motion_dot": 3.862e-05,
        "meta_mean_motion_ddot": 0,
        "tle_line1": "1 29998U 99025LY  25340.60567610  .00003862  00000+0  15606-2 0  9995",
        "tle_line2": "2 29998  99.3066  40.5986 0004629 320.6546  39.4297 14.28506752977873"
      },
      "geometry": {
        "type": "Point",
        "coordinates": [
          45.16935164379995,
          -22.93362692312351
        ]
      }
    },
    {
      "type": "Feature",
      "properties": {
        "norad_id": 29999,
        "name": "FENGYUN 1C DEB",
        "group": "fengyun-1c-debris",
        "lat": -79.57591381272456,
        "lon": 90.4842021081572,
        "alt_km": 901.4481942537168,
        "timestamp": "2025-12-07T03:52:32.770071+00:00",
        "meta_object_name": "FENGYUN 1C DEB",
        "meta_object_id": "1999-025LZ",
        "meta_epoch": "2025-12-06T10:27:00.389952",
        "meta_mean_motion": 14.20121704,
        "meta_eccentricity": 0.01893292,
        "meta_inclination": 98.5758,
        "meta_ra_of_asc_node": 324.8895,
        "meta_arg_of_pericenter": 144.7377,
        "meta_mean_anomaly": 7.5583,
        "meta_ephemeris_type": 0,
        "meta_classification_type": "U",
        "meta_norad_cat_id": 29999,
        "meta_element_set_no": 999,
        "meta_rev_at_epoch": 97634,
        "meta_bstar": 0.00045757049,
        "meta_mean_motion_dot": 1.125e-05,
        "meta_mean_motion_ddot": 0,
        "tle_line1": "1 29999U 99025LZ  25340.43542118  .00001125  00000+0  45757-3 0  9994",
        "tle_line2": "2 29999  98.5758 324.8895 0189329 144.7377   7.5583 14.20121704976345"
      },
      "geometry": {
        "type": "Point",
        "coordinates": [
          90.4842021081572,
          -79.57591381272456
        ]
      }
    },
    {
      "type": "Feature",
      "properties": {
        "norad_id": 30001,
        "name": "FENGYUN 1C DEB",
        "group": "fengyun-1c-debris",
        "lat": -21.153976754687264,
        "lon": -127.53329818171055,
        "alt_km": 767.0017541665111,
        "timestamp": "2025-12-07T03:52:32.770083+00:00",
        "meta_object_name": "FENGYUN 1C DEB",
        "meta_object_id": "1999-025MA",
        "meta_epoch": "2025-12-06T03:42:50.431104",
        "meta_mean_motion": 14.38420366,
        "meta_eccentricity": 0.00387672,
        "meta_inclination": 98.9603,
        "meta_ra_of_asc_node": 54.9168,
        "meta_arg_of_pericenter": 117.9142,
        "meta_mean_anomaly": 272.659,
        "meta_ephemeris_type": 0,
        "meta_classification_type": "U",
        "meta_norad_cat_id": 30001,
        "meta_element_set_no": 999,
        "meta_rev_at_epoch": 97337,
        "meta_bstar": 0.0043117667,
        "meta_mean_motion_dot": 0.00013246,
        "meta_mean_motion_ddot": 0,
        "tle_line1": "1 30001U 99025MA  25340.15475036  .00013246  00000+0  43118-2 0  9998",
        "tle_line2": "2 30001  98.9603  54.9168 0038767 117.9142 272.6590 14.38420366973377"
      },
      "geometry": {
        "type": "Point",
        "coordinates": [
          -127.53329818171055,
          -21.153976754687264
        ]
      }
    },
    {
      "type": "Feature",
      "properties": {
        "norad_id": 30003,
        "name": "FENGYUN 1C DEB",
        "group": "fengyun-1c-debris",
        "lat": -11.822238687823168,
        "lon": -42.13416019201091,
        "alt_km": 1035.225474687184,
        "timestamp": "2025-12-07T03:52:32.770104+00:00",
        "meta_object_name": "FENGYUN 1C DEB",
        "meta_object_id": "1999-025MC",
        "meta_epoch": "2025-12-05T22:47:49.231968",
        "meta_mean_motion": 13.85616798,
        "meta_eccentricity": 0.01431862,
        "meta_inclination": 99.576,
        "meta_ra_of_asc_node": 314.6033,
        "meta_arg_of_pericenter": 137.8014,
        "meta_mean_anomaly": 290.6395,
        "meta_ephemeris_type": 0,
        "meta_classification_type": "U",
        "meta_norad_cat_id": 30003,
        "meta_element_set_no": 999,
        "meta_rev_at_epoch": 95394,
        "meta_bstar": 0.00038512198,
        "meta_mean_motion_dot": 4.31e-06,
        "meta_mean_motion_ddot": 0,
        "tle_line1": "1 30003U 99025MC  25339.94987537  .00000431  00000+0  38512-3 0  9994",
        "tle_line2": "2 30003  99.5760 314.6033 0143186 137.8014 290.6395 13.85616798953949"
      },
      "geometry": {
        "type": "Point",
        "coordinates": [
          -42.13416019201091,
          -11.822238687823168
        ]
      }
    }
  ]
}